{
  "type": "FeatureCollection",
  "features": [
    {
      "type": "Feature",
      "properties": {
        "norad_id": 37238,
        "name": "INTELSAT 17 (IS-17)",
        "group": "intelsat",
        "lat": -0.024020092116914363,
        "lon": -72.09176062002892,
        "alt_km": 35775.6676406296,
        "timestamp": "2025-12-18T08:58:43.059669+00:00",
        "meta_object_name": "INTELSAT 17 (IS-17)",
        "meta_object_id": "2010-065B",
        "meta_epoch": "2025-12-17T19:51:26.076960",
        "meta_mean_motion": 1.00270798,
        "meta_eccentricity": 0.00026057,
        "meta_inclination": 0.0069,
        "meta_ra_of_asc_node": 328.5312,
        "meta_arg_of_pericenter": 304.6436,
        "meta_mean_anomaly": 177.3797,
        "meta_ephemeris_type": 0,
        "meta_classification_type": "U",
        "meta_norad_cat_id": 37238,
        "meta_element_set_no": 999,
        "meta_rev_at_epoch": 5143,
        "meta_bstar": 0,
        "meta_mean_motion_dot": 2.4e-07,
        "meta_mean_motion_ddot": 0,
        "tle_line1": "1 37238U 10065B   25351.82738515  .00000024  00000+0  00000+0 0  9994",
        "tle_line2": "2 37238   0.0069 328.5312 0002605 304.6436 177.3797  1.00270798 51431"
      },
      "geometry": {
        "type": "Point",
        "coordinates": [
          -72.09176062002892,
          -0.024020092116914363
        ]
      }
    },
    {
      "type": "Feature",
      "properties": {
        "norad_id": 37392,
        "name": "INTELSAT 28 (IS-28)",
        "group": "intelsat",
        "lat": 1.2815119501884822,
        "lon": -169.81382295415432,
        "alt_km": 35783.63909060988,
        "timestamp": "2025-12-18T08:58:43.059681+00:00",
        "meta_object_name": "INTELSAT 28 (IS-28)",
        "meta_object_id": "2011-016A",
        "meta_epoch": "2025-12-17T18:18:38.905920",
        "meta_mean_motion": 1.00270715,
        "meta_eccentricity": 0.00036899,
        "meta_inclination": 1.337,
        "meta_ra_of_asc_node": 85.0015,
        "meta_arg_of_pericenter": 185.6021,
        "meta_mean_anomaly": 59.0123,
        "meta_ephemeris_type": 0,
        "meta_classification_type": "U",
        "meta_norad_cat_id": 37392,
        "meta_element_set_no": 999,
        "meta_rev_at_epoch": 5146,
        "meta_bstar": 0,
        "meta_mean_motion_dot": -2.01e-06,
        "meta_mean_motion_ddot": 0,
        "tle_line1": "1 37392U 11016A   25351.76295030 -.00000201  00000+0  00000+0 0  9993",
        "tle_line2": "2 37392   1.3370  85.0015 0003689 185.6021  59.0123  1.00270715 51467"
      },
      "geometry": {
        "type": "Point",
        "coordinates": [
          -169.81382295415432,
          1.2815119501884822
        ]
      }
    },
    {
      "type": "Feature",
      "properties": {
        "norad_id": 37834,
        "name": "INTELSAT 18 (IS-18)",
        "group": "intelsat",
        "lat": 0.03808100751981116,
        "lon": 41.92196606342416,
        "alt_km": 35789.41032869467,
        "timestamp": "2025-12-18T08:58:43.059693+00:00",
        "meta_object_name": "INTELSAT 18 (IS-18)",
        "meta_object_id": "2011-056A",
        "meta_epoch": "2025-12-17T21:01:51.288384",
        "meta_mean_motion": 1.00273019,
        "meta_eccentricity": 0.0001724,
        "meta_inclination": 0.0252,
        "meta_ra_of_asc_node": 286.8744,
        "meta_arg_of_pericenter": 354.6111,
        "meta_mean_anomaly": 300.7224,
        "meta_ephemeris_type": 0,
        "meta_classification_type": "U",
        "meta_norad_cat_id": 37834,
        "meta_element_set_no": 999,
        "meta_rev_at_epoch": 5199,
        "meta_bstar": 0,
        "meta_mean_motion_dot": 7.8e-07,
        "meta_mean_motion_ddot": 0,
        "tle_line1": "1 37834U 11056A   25351.87628806  .00000078  00000+0  00000+0 0  9992",
        "tle_line2": "2 37834   0.0252 286.8744 0001724 354.6111 300.7224  1.00273019 51995"
      },
      "geometry": {
        "type": "Point",
        "coordinates": [
          41.92196606342416,
          0.03808100751981116
        ]
      }
    },
    {
      "type": "Feature",
      "properties": {
        "norad_id": 38098,
        "name": "INTELSAT 22 (IS-22)",
        "group": "intelsat",
        "lat": -0.05300242026009906,
        "lon": -66.00204538837674,
        "alt_km": 35778.87681476057,
        "timestamp": "2025-12-18T08:58:43.059705+00:00",
        "meta_object_name": "INTELSAT 22 (IS-22)",
        "meta_object_id": "2012-011A",
        "meta_epoch": "2025-12-17T19:52:03.218592",
        "meta_mean_motion": 1.00269011,
        "meta_eccentricity": 0.00018974,
        "meta_inclination": 0.0437,
        "meta_ra_of_asc_node": 56.3191,
        "meta_arg_of_pericenter": 232.1092,
        "meta_mean_anomaly": 168.38,
        "meta_ephemeris_type": 0,
        "meta_classification_type": "U",
        "meta_norad_cat_id": 38098,
        "meta_element_set_no": 999,
        "meta_rev_at_epoch": 537,
        "meta_bstar": 0,
        "meta_mean_motion_dot": 0,
        "meta_mean_motion_ddot": 0,
        "tle_line1": "1 38098U 12011A   25351.82781503  .00000000  00000+0  00000+0 0  9991",
        "tle_line2": "2 38098   0.0437  56.3191 0001897 232.1092 168.3800  1.00269011  5374"
      },
      "geometry": {
        "type": "Point",
        "coordinates": [
          -66.00204538837674,
          -0.05300242026009906
        ]
      }
    },
    {
      "type": "Feature",
      "properties": {
        "norad_id": 38356,
        "name": "INTELSAT 19 (IS-19)",
        "group": "intelsat",
        "lat": 0.027287371312967885,
        "lon": 27.954948880163396,
        "alt_km": 35790.943135213245,
        "timestamp": "2025-12-18T08:58:43.059717+00:00",
        "meta_object_name": "INTELSAT 19 (IS-19)",
        "meta_object_id": "2012-030A",
        "meta_epoch": "2025-12-17T20:57:51.670080",
        "meta_mean_motion": 1.00272131,
        "meta_eccentricity": 0.0003172,
        "meta_inclination": 0.01,
        "meta_ra_of_asc_node": 333.2248,
        "meta_arg_of_pericenter": 303.143,
        "meta_mean_anomaly": 290.8568,
        "meta_ephemeris_type": 0,
        "meta_classification_type": "U",
        "meta_norad_cat_id": 38356,
        "meta_element_set_no": 999,
        "meta_rev_at_epoch": 4863,
        "meta_bstar": 0,
        "meta_mean_motion_dot": -3.1e-07,
        "meta_mean_motion_ddot": 0,
        "tle_line1": "1 38356U 12030A   25351.87351470 -.00000031  00000+0  00000+0 0  9995",
        "tle_line2": "2 38356   0.0100 333.2248 0003172 303.1430 290.8568  1.00272131 48636"
      },
      "geometry": {
        "type": "Point",
        "coordinates": [
          27.954948880163396,
          0.027287371312967885
        ]
      }
    },
    {
      "type": "Feature",
      "properties": {
        "norad_id": 38740,
        "name": "INTELSAT 20 (IS-20)",
        "group": "intelsat",
        "lat": -0.020803775741961815,
        "lon": -69.56085162492025,
        "alt_km": 35789.90572081303,
        "timestamp": "2025-12-18T08:58:43.059729+00:00",
        "meta_object_name": "INTELSAT 20 (IS-20)",
        "meta_object_id": "2012-043A",
        "meta_epoch": "2025-12-17T19:52:21.823968",
        "meta_mean_motion": 1.00272571,
        "meta_eccentricity": 0.000339,
        "meta_inclination": 0.0036,
        "meta_ra_of_asc_node": 37.22,
        "meta_arg_of_pericenter": 146.4854,
        "meta_mean_anomaly": 269.58,
        "meta_ephemeris_type": 0,
        "meta_classification_type": "U",
        "meta_norad_cat_id": 38740,
        "meta_element_set_no": 999,
        "meta_rev_at_epoch": 4893,
        "meta_bstar": 0,
        "meta_mean_motion_dot": 0,
        "meta_mean_motion_ddot": 0,
        "tle_line1": "1 38740U 12043A   25351.82803037  .00000000  00000+0  00000+0 0  9997",
        "tle_line2": "2 38740   0.0036  37.2200 0003390 146.4854 269.5800  1.00272571 48933"
      },
      "geometry": {
        "type": "Point",
        "coordinates": [
          -69.56085162492025,
          -0.020803775741961815
        ]
      }
    },
    {
      "type": "Feature",
      "properties": {
        "norad_id": 38749,
        "name": "INTELSAT 21 (IS-21)",
        "group": "intelsat",
        "lat": -0.026252672607328692,
        "lon": 163.8805628665667,
        "alt_km": 35786.81938012854,
        "timestamp": "2025-12-18T08:58:43.059741+00:00",
        "meta_object_name": "INTELSAT 21 (IS-21)",
        "meta_object_id": "2012-045A",
        "meta_epoch": "2025-12-17T13:03:01.628640",
        "meta_mean_motion": 1.00269248,
        "meta_eccentricity": 0.00018667,
        "meta_inclination": 0.0326,
        "meta_ra_of_asc_node": 281.7984,
        "meta_arg_of_pericenter": 331.46,
        "meta_mean_anomaly": 330.9223,
        "meta_ephemeris_type": 0,
        "meta_classification_type": "U",
        "meta_norad_cat_id": 38749,
        "meta_element_set_no": 999,
        "meta_rev_at_epoch": 4870,
        "meta_bstar": 0,
        "meta_mean_motion_dot": -2.6e-06,
        "meta_mean_motion_ddot": 0,
        "tle_line1": "1 38749U 12045A   25351.54376885 -.00000260  00000+0  00000+0 0  9992",
        "tle_line2": "2 38749   0.0326 281.7984 0001866 331.4600 330.9223  1.00269248 48704"
      },
      "geometry": {
        "type": "Point",
        "coordinates": [
          163.8805628665667,
          -0.026252672607328692
        ]
      }
    }
  ]
}